1 00731U 64001E   24048.90123336  .00000095  00000-0  10817-3 0  9991
2 00731  69.9062 293.6202 0011946  30.3938 329.7857 13.96046685 58895
1 00731U 64001E   24049.61772449  .00000089  00000-0  10390-3 0  9994
2 00731  69.9060 292.0814 0011993  29.4673 330.7106 13.96046921 58995
1 00731U 64001E   24049.97597012  .00000078  00000-0  95993-4 0  9995
2 00731  69.9060 291.3120 0012022  29.0281 331.1490 13.96046948 59049
1   731U 64001E   24050.40586472  .00000074  00000-0  93084-4 0  9998
2   731  69.9058 290.3887 0012054  28.4183 331.7577 13.96047067 59588
1 00731U 64001E   24050.40586472  .00000074  00000-0  93084-4 0  9998
2 00731  69.9058 290.3887 0012054  28.4183 331.7577 13.96047067 59106
1 00731U 64001E   24050.90740841  .00000060  00000-0  82900-4 0  9995
2 00731  69.9058 289.3116 0012080  27.7168 332.4579 13.96047112 59171
1   731U 64001E   24051.40895210  .00000065  00000-0  86222-4 0  9998
2   731  69.9056 288.2344 0012113  26.9763 333.1969 13.96047238 59720
1 00731U 64001E   24051.40895210  .00000065  00000-0  86222-4 0  9998
2 00731  69.9056 288.2344 0012113  26.9763 333.1969 13.96047238 59247
1 00731U 64001E   24051.91049567  .00000071  00000-0  91005-4 0  9992
2 00731  69.9056 287.1573 0012136  26.2551 333.9166 13.96047379 59313
1 00731U 64001E   24052.62698652  .00000074  00000-0  92925-4 0  9991
2 00731  69.9054 285.6185 0012181  25.2607 334.9091 13.96047536 59418
1   731U 64001E   24052.84193373  .00000075  00000-0  93755-4 0  9998
2   731  69.9054 285.1569 0012193  24.9443 335.2248 13.96047577 59925
1 00731U 64001E   24052.91358280  .00000077  00000-0  94942-4 0  9997
2 00731  69.9054 285.0030 0012195  24.8449 335.3241 13.96047598 59459
1 00731U 64001E   24053.63007340  .00000088  00000-0  10342-3 0  9998
2 00731  69.9053 283.4642 0012241  23.8102 336.3567 13.96047851 59551
1 00731U 64001E   24053.91666957  .00000091  00000-0  10540-3 0  9998
2 00731  69.9052 282.8487 0012252  23.4072 336.7588 13.96047932 59595
1   731U 64001E   24054.05996767  .00000094  00000-0  10731-3 0  9994
2   731  69.9052 282.5409 0012263  23.2173 336.9483 13.96047987 60091
1 00731U 64001E   24054.34656385  .00000092  00000-0  10604-3 0  9992
2 00731  69.9051 281.9254 0012283  22.8079 337.3569 13.96048070 59657
1 00731U 64001E   24054.91975613  .00000086  00000-0  10187-3 0  9992
2 00731  69.9051 280.6944 0012312  21.9940 338.1691 13.96048215 59734
1   731U 64001E   24055.06305419  .00000086  00000-0  10152-3 0  9992
2   731  69.9050 280.3866 0012324  21.7979 338.3648 13.96048260 60237
1 00731U 64001E   24055.56459735  .00000094  00000-0  10729-3 0  9997
2 00731  69.9049 279.3095 0012356  21.1037 339.0575 13.96048482 59827
1 00731U 64001E   24055.85119344  .00000080  00000-0  97409-4 0  9994
2 00731  69.9049 278.6939 0012373  20.6958 339.4645 13.96048490 59866
1   731U 64001E   24056.35273654  .00000065  00000-0  86309-4 0  9995
2   731  69.9048 277.6167 0012409  19.9889 340.1699 13.96048565 60415
1 00731U 64001E   24056.35273654  .00000065  00000-0  86309-4 0  9995
2 00731  69.9048 277.6167 0012409  19.9889 340.1699 13.96048565 59930
1 00731U 64001E   24056.92592858  .00000067  00000-0  88115-4 0  9997
2 00731  69.9047 276.3857 0012441  19.1737 340.9834 13.96048735 60010
1 00731U 64001E   24056.99757758  .00000068  00000-0  88356-4 0  9994
2 00731  69.9047 276.2318 0012447  19.0794 341.0775 13.96048759 60022
1   731U 64001E   24057.78571662  .00000056  00000-0  79924-4 0  9998
2   731  69.9046 274.5391 0012491  18.0252 342.1293 13.96048884 60611
1 00731U 64001E   24057.85736558  .00000063  00000-0  85149-4 0  9997
2 00731  69.9047 274.3852 0012497  18.0797 342.0750 13.96048966 60148
1 00731U 64001E   24058.28725955  .00000063  00000-0  84769-4 0  9991
2 00731  69.9045 273.4619 0012529  17.3914 342.7618 13.96049042 60209
1   731U 64001E   24058.86045152  .00000062  00000-0  84271-4 0  9996
2   731  69.9044 272.2308 0012558  16.6494 343.5021 13.96049135 60768
1 00731U 64001E   24058.93210052  .00000062  00000-0  83998-4 0  9992
2 00731  69.9044 272.0769 0012565  16.5545 343.5968 13.96049141 60296
1 00731U 64001E   24059.57694133  .00000060  00000-0  82499-4 0  9992
2 00731  69.9043 270.6919 0012605  15.6911 344.4582 13.96049293 60388
1   731U 64001E   24059.86353724  .00000059  00000-0  81936-4 0  9995
2   731  69.9042 270.0764 0012619  15.3136 344.8348 13.96049336 60900
1 00731U 64001E   24059.93518622  .00000060  00000-0  83133-4 0  9996
2 00731  69.9042 269.9225 0012624  15.2228 344.9254 13.96049358 60435
1 00731U 64001E   24060.58002691  .00000056  00000-0  79859-4 0  9998
2 00731  69.9041 268.5375 0012658  14.4100 345.7364 13.96049523 60527
1   731U 64001E   24060.86662277  .00000050  00000-0  75914-4 0  9993
2   731  69.9041 267.9220 0012677  13.9935 346.1519 13.96049540 61044
1 00731U 64001E   24060.93827174  .00000048  00000-0  73986-4 0  9994
2 00731  69.9041 267.7681 0012685  13.8841 346.2610 13.96049542 60579
1 00731U 64001E   24061.58311230  .00000044  00000-0  71123-4 0  9994
2 00731  69.9040 266.3831 0012723  13.0368 347.1063 13.96049720 60669
1 00731U 64001E   24061.86970815  .00000037  00000-0  66057-4 0  9997
2 00731  69.9041 265.7676 0012741  12.6221 347.5200 13.96049714 60708
1   731U 64001E   24062.01300604  .00000036  00000-0  65004-4 0  9998
2   731  69.9040 265.4598 0012751  12.4318 347.7099 13.96049746 61202
1 00731U 64001E   24062.58619759  .00000037  00000-0  65797-4 0  9994
2 00731  69.9040 264.2287 0012785  11.6774 348.4625 13.96049892 60808
1 00731U 64001E   24062.94444230  .00000046  00000-0  72723-4 0  9991
2 00731  69.9040 263.4592 0012815  11.1973 348.9415 13.96049982 60855
1   731U 64001E   24063.51763384  .00000055  00000-0  78971-4 0  9990
2   731  69.9039 262.2281 0012854  10.4266 349.7103 13.96050125 61412
1 00731U 64001E   24063.58928278  .00000049  00000-0  74790-4 0  9990
2 00731  69.9039 262.0742 0012859  10.3285 349.8081 13.96050109 60942
1 00731U 64001E   24063.87587824  .00000123  00000-0  12877-3 0  9990
2 00731  69.9039 261.4585 0012868   9.9924 350.1434 13.96050607 60988
1   731U 64001E   24064.52071875  .00000087  00000-0  10257-3 0  9996
2   731  69.9038 260.0735 0012916   9.1036 351.0300 13.96050473 61556
1 00731U 64001E   24064.59236768  .00000073  00000-0  92472-4 0  9992
2 00731  69.9038 259.9196 0012915   9.0105 351.1229 13.96050412 61081
1 00731U 64001E   24064.95061234  .00000079  00000-0  96653-4 0  9997
2 00731  69.9039 259.1502 0012936   8.5111 351.6211 13.96050468 61132
1 00731U 64001E   24065.59545247  .00000097  00000-0  10979-3 0  9995
2 00731  69.9039 257.7652 0012984   7.6488 352.4812 13.96050731 61221
1   731U 64001E   24065.81039921  .00000096  00000-0  10941-3 0  9995
2   731  69.9040 257.3035 0012994   7.3541 352.7752 13.96050744 61738
1 00731U 64001E   24066.59853691  .00000107  00000-0  11737-3 0  9996
2 00731  69.9040 255.6107 0013041   6.3375 353.7892 13.96051081 61367
1   731U 64001E   24066.81348355  .00000106  00000-0  11659-3 0  9999
2   731  69.9040 255.1490 0013051   6.0523 354.0738 13.96051125 61878
1 00731U 64001E   24067.60162104  .00000094  00000-0  10773-3 0  9995
2 00731  69.9041 253.4562 0013096   5.0586 355.0649 13.96051375 61506
1   731U 64001E   24068.24646074  .00000086  00000-0  10158-3 0  9997
2   731  69.9040 252.0711 0013147   4.1879 355.9334 13.96051546 62071
1 00731U 64001E   24068.24646074  .00000086  00000-0  10158-3 0  9997
2 00731  69.9040 252.0711 0013147   4.1879 355.9334 13.96051546 61597
1 00731U 64001E   24068.89130034  .00000065  00000-0  86391-4 0  9992
2 00731  69.9040 250.6861 0013184   3.3222 356.7968 13.96051653 61682
1   731U 64001E   24069.46449102  .00000075  00000-0  93845-4 0  9998
2   731  69.9040 249.4550 0013221   2.5814 357.5357 13.96051897 62247
1 00731U 64001E   24069.46449102  .00000075  00000-0  93845-4 0  9998
2 00731  69.9040 249.4550 0013221   2.5814 357.5357 13.96051897 61763
1 00731U 64001E   24069.89438412  .00000059  00000-0  82440-4 0  9998
2 00731  69.9041 248.5317 0013249   2.0284 358.0873 13.96051894 61824
1   731U 64001E   24070.46757488  .00000056  00000-0  79837-4 0  9993
2   731  69.9040 247.3006 0013295   1.3022 358.8115 13.96051999 62383
1 00731U 64001E   24070.46757488  .00000056  00000-0  79837-4 0  9993
2 00731  69.9040 247.3006 0013295   1.3022 358.8115 13.96051999 61900
1 00731U 64001E   24070.89746789  .00000053  00000-0  77630-4 0  9998
2 00731  69.9041 246.3773 0013317   0.7267 359.3855 13.96052053 61965
1 00731U 64001E   24071.18406320  .00000054  00000-0  78122-4 0  9993
2 00731  69.9041 245.7617 0013334   0.3321 359.7791 13.96052120 62005
1   731U 64001E   24071.75725377  .00000056  00000-0  80064-4 0  9992
2   731  69.9042 244.5307 0013362 359.5684   0.5407 13.96052258 62569
1 00731U 64001E   24072.47374196  .00000047  00000-0  73670-4 0  9996
2 00731  69.9043 242.9919 0013411 358.6507   1.4560 13.96052391 62186
1   731U 64001E   24073.19022991  .00000049  00000-0  74803-4 0  9990
2   731  69.9043 241.4530 0013466 357.7590   2.3452 13.96052599 62765
1 00731U 64001E   24073.47682507  .00000047  00000-0  73039-4 0  9994
2 00731  69.9042 240.8374 0013477 357.3766   2.7266 13.96052676 62321
1 00731U 64001E   24073.90671777  .00000056  00000-0  79970-4 0  9999
2 00731  69.9042 239.9140 0013506 356.8343   3.2675 13.96052830 62387
1   731U 64001E   24074.19331295  .00000054  00000-0  78494-4 0  9997
2   731  69.9042 239.2985 0013533 356.4768   3.6240 13.96052886 62905
1 00731U 64001E   24074.83815202  .00000050  00000-0  75717-4 0  9994
2 00731  69.9042 237.9135 0013569 355.6681   4.4304 13.96052994 62518
1   731U 64001E   24075.48299103  .00000056  00000-0  79759-4 0  9998
2   731  69.9043 236.5285 0013610 354.8569   5.2394 13.96053165 63085
1 00731U 64001E   24075.84123496  .00000062  00000-0  84221-4 0  9996
2 00731  69.9044 235.7591 0013636 354.4106   5.6844 13.96053225 62651
1   731U 64001E   24076.48607389  .00000069  00000-0  89489-4 0  9993
2   731  69.9045 234.3741 0013674 353.5936   6.4992 13.96053385 63221
